[{"OBJECT_NAME":"ONEWEB-0691","OBJECT_ID":"2024-188F","EPOCH":"2026-03-09T22:24:38.001024","MEAN_MOTION":13.1141347,"ECCENTRICITY":0.0001593,"INCLINATION":87.8876,"RA_OF_ASC_NODE":40.6897,"ARG_OF_PERICENTER":70.7737,"MEAN_ANOMALY":289.3563,"EPHEMERIS_TYPE":0,"CLASSIFICATION_TYPE":"U","NORAD_CAT_ID":61599,"ELEMENT_SET_NO":999,"REV_AT_EPOCH":7147,"BSTAR":-0.0010872668,"MEAN_MOTION_DOT":-3.73e-6,"MEAN_MOTION_DDOT":0},{"OBJECT_NAME":"THORAD DELTA 1 DEB","OBJECT_ID":"1974-089EA","EPOCH":"2026-03-09T22:00:22.142016","MEAN_MOTION":12.63442209,"ECCENTRICITY":0.02975435,"INCLINATION":102.0238,"RA_OF_ASC_NODE":47.8705,"ARG_OF_PERICENTER":67.7533,"MEAN_ANOMALY":350.7138,"EPHEMERIS_TYPE":0,"CLASSIFICATION_TYPE":"U","NORAD_CAT_ID":9795,"ELEMENT_SET_NO":999,"REV_AT_EPOCH":36005,"BSTAR":0.0015965533,"MEAN_MOTION_DOT":2.98e-6,"MEAN_MOTION_DDOT":0}]
